{
  "type": "FeatureCollection",
  "features": [
    {
      "type": "Feature",
      "properties": {
        "norad_id": 66674,
        "name": "TRANSPORTER-15 J",
        "group": "last-30-days",
        "lat": 63.98187523656005,
        "lon": -98.71445230919824,
        "alt_km": 512.6388589435855,
        "timestamp": "2025-12-20T03:42:46.119391+00:00",
        "meta_object_name": "TRANSPORTER-15 J",
        "meta_object_id": "2025-276J",
        "meta_epoch": "2025-12-18T17:57:22.864320",
        "meta_mean_motion": 15.16702866,
        "meta_eccentricity": 0.00049846,
        "meta_inclination": 97.4387,
        "meta_ra_of_asc_node": 64.3803,
        "meta_arg_of_pericenter": 273.0795,
        "meta_mean_anomaly": 86.9868,
        "meta_ephemeris_type": 0,
        "meta_classification_type": "U",
        "meta_norad_cat_id": 66674,
        "meta_element_set_no": 999,
        "meta_rev_at_epoch": 303,
        "meta_bstar": 0.0001795625,
        "meta_mean_motion_dot": 3.452e-05,
        "meta_mean_motion_ddot": 0,
        "tle_line1": "1 66674U 25276J   25352.74818130  .00003452  00000+0  17956-3 0  9994",
        "tle_line2": "2 66674  97.4387  64.3803 0004984 273.0795  86.9868 15.16702866  3034"
      },
      "geometry": {
        "type": "Point",
        "coordinates": [
          -98.71445230919824,
          63.98187523656005
        ]
      }
    },
    {
      "type": "Feature",
      "properties": {
        "norad_id": 66675,
        "name": "TRANSPORTER-15 K",
        "group": "last-30-days",
        "lat": 55.55777214553996,
        "lon": -103.24784443938758,
        "alt_km": 512.7234063377336,
        "timestamp": "2025-12-20T03:42:46.119401+00:00",
        "meta_object_name": "TRANSPORTER-15 K",
        "meta_object_id": "2025-276K",
        "meta_epoch": "2025-12-19T11:20:16.295712",
        "meta_mean_motion": 15.16945625,
        "meta_eccentricity": 0.0005004,
        "meta_inclination": 97.4401,
        "meta_ra_of_asc_node": 65.0975,
        "meta_arg_of_pericenter": 274.1676,
        "meta_mean_anomaly": 85.8985,
        "meta_ephemeris_type": 0,
        "meta_classification_type": "U",
        "meta_norad_cat_id": 66675,
        "meta_element_set_no": 999,
        "meta_rev_at_epoch": 314,
        "meta_bstar": 0.00038739,
        "meta_mean_motion_dot": 7.581e-05,
        "meta_mean_motion_ddot": 0,
        "tle_line1": "1 66675U 25276K   25353.47241083  .00007581  00000+0  38739-3 0  9992",
        "tle_line2": "2 66675  97.4401  65.0975 0005004 274.1676  85.8985 15.16945625  3146"
      },
      "geometry": {
        "type": "Point",
        "coordinates": [
          -103.24784443938758,
          55.55777214553996
        ]
      }
    },
    {
      "type": "Feature",
      "properties": {
        "norad_id": 66676,
        "name": "TRANSPORTER-15 L",
        "group": "last-30-days",
        "lat": 62.70548944446146,
        "lon": -99.56531264597032,
        "alt_km": 512.5459177665216,
        "timestamp": "2025-12-20T03:42:46.119413+00:00",
        "meta_object_name": "TRANSPORTER-15 L",
        "meta_object_id": "2025-276L",
        "meta_epoch": "2025-12-19T03:27:05.681664",
        "meta_mean_motion": 15.16750475,
        "meta_eccentricity": 0.00048204,
        "meta_inclination": 97.4404,
        "meta_ra_of_asc_node": 64.7724,
        "meta_arg_of_pericenter": 273.9183,
        "meta_mean_anomaly": 86.1499,
        "meta_ephemeris_type": 0,
        "meta_classification_type": "U",
        "meta_norad_cat_id": 66676,
        "meta_element_set_no": 999,
        "meta_rev_at_epoch": 309,
        "meta_bstar": 0.00026862885,
        "meta_mean_motion_dot": 5.205e-05,
        "meta_mean_motion_ddot": 0,
        "tle_line1": "1 66676U 25276L   25353.14381576  .00005205  00000+0  26863-3 0  9995",
        "tle_line2": "2 66676  97.4404  64.7724 0004820 273.9183  86.1499 15.16750475  3098"
      },
      "geometry": {
        "type": "Point",
        "coordinates": [
          -99.56531264597032,
          62.70548944446146
        ]
      }
    },
    {
      "type": "Feature",
      "properties": {
        "norad_id": 66677,
        "name": "TRANSPORTER-15 M",
        "group": "last-30-days",
        "lat": 27.19732497032495,
        "lon": -110.37260450207094,
        "alt_km": 514.1962811955618,
        "timestamp": "2025-12-20T03:42:46.119425+00:00",
        "meta_object_name": "TRANSPORTER-15 M",
        "meta_object_id": "2025-276M",
        "meta_epoch": "2025-12-19T14:22:53.585184",
        "meta_mean_motion": 15.17398982,
        "meta_eccentricity": 0.0003817,
        "meta_inclination": 97.4397,
        "meta_ra_of_asc_node": 65.2316,
        "meta_arg_of_pericenter": 279.7196,
        "meta_mean_anomaly": 80.3606,
        "meta_ephemeris_type": 0,
        "meta_classification_type": "U",
        "meta_norad_cat_id": 66677,
        "meta_element_set_no": 999,
        "meta_rev_at_epoch": 316,
        "meta_bstar": 0.00046126,
        "meta_mean_motion_dot": 9.158e-05,
        "meta_mean_motion_ddot": 0,
        "tle_line1": "1 66677U 25276M   25353.59923131  .00009158  00000+0  46126-3 0  9999",
        "tle_line2": "2 66677  97.4397  65.2316 0003817 279.7196  80.3606 15.17398982  3162"
      },
      "geometry": {
        "type": "Point",
        "coordinates": [
          -110.37260450207094,
          27.19732497032495
        ]
      }
    },
    {
      "type": "Feature",
      "properties": {
        "norad_id": 66678,
        "name": "TRANSPORTER-15 N",
        "group": "last-30-days",
        "lat": 59.84111560547936,
        "lon": -101.22259587184665,
        "alt_km": 512.3678625973062,
        "timestamp": "2025-12-20T03:42:46.119436+00:00",
        "meta_object_name": "TRANSPORTER-15 N",
        "meta_object_id": "2025-276N",
        "meta_epoch": "2025-12-19T11:21:20.708640",
        "meta_mean_motion": 15.16808782,
        "meta_eccentricity": 0.0004843,
        "meta_inclination": 97.4435,
        "meta_ra_of_asc_node": 65.1051,
        "meta_arg_of_pericenter": 264.5662,
        "meta_mean_anomaly": 95.5019,
        "meta_ephemeris_type": 0,
        "meta_classification_type": "U",
        "meta_norad_cat_id": 66678,
        "meta_element_set_no": 999,
        "meta_rev_at_epoch": 314,
        "meta_bstar": 0.00026988,
        "meta_mean_motion_dot": 5.239e-05,
        "meta_mean_motion_ddot": 0,
        "tle_line1": "1 66678U 25276N   25353.47315635  .00005239  00000+0  26988-3 0  9991",
        "tle_line2": "2 66678  97.4435  65.1051 0004843 264.5662  95.5019 15.16808782  3148"
      },
      "geometry": {
        "type": "Point",
        "coordinates": [
          -101.22259587184665,
          59.84111560547936
        ]
      }
    },
    {
      "type": "Feature",
      "properties": {
        "norad_id": 66679,
        "name": "TRANSPORTER-15 P",
        "group": "last-30-days",
        "lat": 65.04963251124,
        "lon": -97.93602295040353,
        "alt_km": 512.5484718806101,
        "timestamp": "2025-12-20T03:42:46.119446+00:00",
        "meta_object_name": "TRANSPORTER-15 P",
        "meta_object_id": "2025-276P",
        "meta_epoch": "2025-12-19T11:22:40.866240",
        "meta_mean_motion": 15.16659761,
        "meta_eccentricity": 0.0004626,
        "meta_inclination": 97.4376,
        "meta_ra_of_asc_node": 65.0895,
        "meta_arg_of_pericenter": 273.2016,
        "meta_mean_anomaly": 86.8688,
        "meta_ephemeris_type": 0,
        "meta_classification_type": "U",
        "meta_norad_cat_id": 66679,
        "meta_element_set_no": 999,
        "meta_rev_at_epoch": 314,
        "meta_bstar": 0.00015148,
        "meta_mean_motion_dot": 2.898e-05,
        "meta_mean_motion_ddot": 0,
        "tle_line1": "1 66679U 25276P   25353.47408410  .00002898  00000+0  15148-3 0  9990",
        "tle_line2": "2 66679  97.4376  65.0895 0004626 273.2016  86.8688 15.16659761  3143"
      },
      "geometry": {
        "type": "Point",
        "coordinates": [
          -97.93602295040353,
          65.04963251124
        ]
      }
    },
    {
      "type": "Feature",
      "properties": {
        "norad_id": 66680,
        "name": "TRANSPORTER-15 Q",
        "group": "last-30-days",
        "lat": 58.67688474357405,
        "lon": -101.82659526675184,
        "alt_km": 512.7008913288046,
        "timestamp": "2025-12-20T03:42:46.119462+00:00",
        "meta_object_name": "TRANSPORTER-15 Q",
        "meta_object_id": "2025-276Q",
        "meta_epoch": "2025-12-19T11:21:00.504864",
        "meta_mean_motion": 15.16781824,
        "meta_eccentricity": 0.0005033,
        "meta_inclination": 97.4411,
        "meta_ra_of_asc_node": 65.1026,
        "meta_arg_of_pericenter": 265.8218,
        "meta_mean_anomaly": 94.244,
        "meta_ephemeris_type": 0,
        "meta_classification_type": "U",
        "meta_norad_cat_id": 66680,
        "meta_element_set_no": 999,
        "meta_rev_at_epoch": 314,
        "meta_bstar": 0.00013946,
        "meta_mean_motion_dot": 2.672e-05,
        "meta_mean_motion_ddot": 0,
        "tle_line1": "1 66680U 25276Q   25353.47292251  .00002672  00000+0  13946-3 0  9990",
        "tle_line2": "2 66680  97.4411  65.1026 0005033 265.8218  94.2440 15.16781824  3141"
      },
      "geometry": {
        "type": "Point",
        "coordinates": [
          -101.82659526675184,
          58.67688474357405
        ]
      }
    }
  ]
}